{"type":"FeatureCollection","source":"OpenStreetMap via OpenFreeMap (ODbL), zoom 14 tiles","features":[{"type":"Feature","geometry":{"type":"MultiPolygon","coordinates":[[[[123.683739,10.531358],[123.70621,10.531358],[123.706065,10.530081],[123.705969,10.52957],[123.705937,10.529227],[123.705878,10.529132],[123.705786,10.529116],[123.705813,10.529063],[123.705765,10.529063],[123.705749,10.529021],[123.705776,10.528926],[123.705668,10.528056],[123.705567,10.527782],[123.705508,10.527534],[123.705545,10.52736],[123.705304,10.526716],[123.705239,10.526252],[123.705261,10.525809],[123.705094,10.525145],[123.704531,10.524237],[123.704596,10.523979],[123.703646,10.52322],[123.703732,10.522977],[123.704242,10.522597],[123.704585,10.522787],[123.704601,10.522571],[123.704451,10.522455],[123.704601,10.522339],[123.705186,10.521785],[123.706055,10.521379],[123.706398,10.521273],[123.706398,10.521084],[123.705572,10.521368],[123.704848,10.521796],[123.704183,10.522381],[123.703287,10.522792],[123.703244,10.522481],[123.703061,10.522196],[123.702954,10.521542],[123.702986,10.521126],[123.703271,10.520709],[123.703405,10.519717],[123.703453,10.519069],[123.703651,10.51832],[123.703716,10.518357],[123.703705,10.518552],[123.703952,10.518209],[123.704161,10.518093],[123.704483,10.518172],[123.704767,10.518082],[123.704311,10.518061],[123.704279,10.517945],[123.704644,10.517281],[123.705094,10.516759],[123.705518,10.516173],[123.705041,10.516495],[123.704794,10.51582],[123.704971,10.515097],[123.704622,10.514549],[123.704242,10.514237],[123.704338,10.514],[123.705389,10.513689],[123.706398,10.513752],[123.706398,10.512956],[123.705175,10.512602],[123.704821,10.512228],[123.705073,10.511284],[123.706248,10.509327],[123.706398,10.509253],[123.706398,10.509079],[123.683739,10.509079],[123.683739,10.531358]],[[123.704606,10.516748],[123.704697,10.516764],[123.704917,10.516658],[123.70496,10.516706],[123.704714,10.516991],[123.704558,10.517123],[123.704408,10.517386],[123.704177,10.517697],[123.703941,10.518051],[123.70385,10.518119],[123.703861,10.51804],[123.704252,10.517181],[123.704504,10.51678],[123.704606,10.516748]]],[[[123.706398,10.518309],[123.706398,10.518072],[123.706264,10.518135],[123.705727,10.518584],[123.705647,10.518984],[123.705803,10.519264],[123.706114,10.519538],[123.706398,10.519707],[123.706398,10.519454],[123.706157,10.519369],[123.705813,10.519048],[123.705829,10.518763],[123.705996,10.518473],[123.706398,10.518309]]]]},"properties":{"kind":"water","class":"ocean"}},{"type":"Feature","geometry":{"type":"Polygon","coordinates":[[[123.70599,10.509754],[123.706248,10.509327],[123.706398,10.509253],[123.706398,10.49094],[123.706339,10.490824],[123.706039,10.490539],[123.705872,10.490497],[123.705652,10.490528],[123.705443,10.490244],[123.705588,10.490149],[123.705636,10.490101],[123.705642,10.490027],[123.705604,10.489732],[123.705695,10.489621],[123.704923,10.488935],[123.704338,10.488556],[123.703769,10.488308],[123.703684,10.488477],[123.703619,10.488498],[123.703464,10.488397],[123.70356,10.488218],[123.703507,10.488176],[123.703351,10.488134],[123.703469,10.487912],[123.703206,10.487727],[123.703185,10.487648],[123.703179,10.487553],[123.703083,10.487474],[123.683739,10.487474],[123.683739,10.509754],[123.70599,10.509754]]]},"properties":{"kind":"water","class":"ocean"}},{"type":"Feature","geometry":{"type":"MultiPolygon","coordinates":[[[[123.705776,10.528926],[123.705711,10.528415],[123.705711,10.531358],[123.70621,10.531358],[123.706065,10.530081],[123.705969,10.52957],[123.705937,10.529227],[123.705878,10.529132],[123.705786,10.529116],[123.705813,10.529063],[123.705765,10.529063],[123.705749,10.529021],[123.705776,10.528926]]],[[[123.705711,10.521321],[123.705711,10.521542],[123.706055,10.521379],[123.706403,10.521273],[123.706736,10.521041],[123.706993,10.52064],[123.707224,10.520124],[123.707047,10.519786],[123.706677,10.519549],[123.706157,10.519369],[123.705813,10.519048],[123.705829,10.518763],[123.705996,10.518473],[123.706521,10.518257],[123.707787,10.51755],[123.708458,10.517566],[123.709697,10.517766],[123.710909,10.518046],[123.711618,10.518024],[123.712079,10.517708],[123.71224,10.517497],[123.712454,10.517323],[123.712803,10.517112],[123.713216,10.517149],[123.71356,10.517307],[123.713812,10.517518],[123.713914,10.517766],[123.714128,10.518077],[123.714187,10.518383],[123.714858,10.519554],[123.715201,10.520445],[123.715281,10.521099],[123.715614,10.521558],[123.715754,10.521047],[123.715217,10.519638],[123.714654,10.51842],[123.714278,10.517713],[123.713774,10.517075],[123.713393,10.516859],[123.712894,10.516748],[123.712487,10.516716],[123.711832,10.517101],[123.711591,10.51737],[123.711333,10.517513],[123.71069,10.517471],[123.710201,10.517217],[123.710121,10.516806],[123.709488,10.516321],[123.709295,10.51602],[123.709316,10.515751],[123.709316,10.514918],[123.709241,10.514491],[123.708898,10.513963],[123.708281,10.513594],[123.70753,10.513436],[123.707326,10.513309],[123.7065,10.512987],[123.705711,10.512761],[123.705711,10.51371],[123.707428,10.513816],[123.708061,10.514211],[123.708791,10.514765],[123.708914,10.515145],[123.708828,10.515778],[123.708882,10.516595],[123.708817,10.516864],[123.709032,10.517239],[123.709445,10.517624],[123.708458,10.517471],[123.707782,10.517455],[123.706988,10.517798],[123.706264,10.518135],[123.705727,10.518584],[123.705711,10.518673],[123.705711,10.5191],[123.705803,10.519264],[123.706114,10.519538],[123.706961,10.520034],[123.706967,10.520313],[123.706693,10.520841],[123.706446,10.521068],[123.705711,10.521321]]],[[[123.710389,10.509079],[123.710255,10.509079],[123.710255,10.509179],[123.710389,10.509079]]],[[[123.705711,10.509079],[123.705711,10.510218],[123.706248,10.509327],[123.706554,10.509174],[123.706747,10.509258],[123.706838,10.509665],[123.706838,10.509164],[123.706816,10.509079],[123.705711,10.509079]]]]},"properties":{"kind":"water","class":"ocean"}},{"type":"Feature","geometry":{"type":"Polygon","coordinates":[[[123.712567,10.511458],[123.713651,10.511368],[123.713592,10.510836],[123.712519,10.510936],[123.712567,10.511458]]]},"properties":{"kind":"water","class":"lake"}},{"type":"Feature","geometry":{"type":"Polygon","coordinates":[[[123.712572,10.511505],[123.712621,10.512038],[123.713715,10.511943],[123.713656,10.51141],[123.712572,10.511505]]]},"properties":{"kind":"water","class":"lake"}},{"type":"Feature","geometry":{"type":"Polygon","coordinates":[[[123.712626,10.512091],[123.712674,10.512618],[123.713779,10.512523],[123.71372,10.51198],[123.712626,10.512091]]]},"properties":{"kind":"water","class":"lake"}},{"type":"Feature","geometry":{"type":"Polygon","coordinates":[[[123.71268,10.512671],[123.712733,10.513198],[123.713844,10.513104],[123.713785,10.51256],[123.71268,10.512671]]]},"properties":{"kind":"water","class":"lake"}},{"type":"Feature","geometry":{"type":"Polygon","coordinates":[[[123.712733,10.513241],[123.712787,10.513773],[123.713903,10.513668],[123.713849,10.51314],[123.712733,10.513241]]]},"properties":{"kind":"water","class":"lake"}},{"type":"Feature","geometry":{"type":"Polygon","coordinates":[[[123.712787,10.51381],[123.712841,10.514332],[123.713967,10.514232],[123.713908,10.51371],[123.712787,10.51381]]]},"properties":{"kind":"water","class":"lake"}},{"type":"Feature","geometry":{"type":"Polygon","coordinates":[[[123.712846,10.514401],[123.712894,10.514923],[123.714042,10.514897],[123.713973,10.514296],[123.712846,10.514401]]]},"properties":{"kind":"water","class":"lake"}},{"type":"Feature","geometry":{"type":"Polygon","coordinates":[[[123.712835,10.514934],[123.712782,10.514406],[123.711687,10.514506],[123.711746,10.515129],[123.712835,10.514934]]]},"properties":{"kind":"water","class":"lake"}},{"type":"Feature","geometry":{"type":"Polygon","coordinates":[[[123.711682,10.514433],[123.712776,10.514338],[123.712728,10.513816],[123.711634,10.513916],[123.711682,10.514433]]]},"properties":{"kind":"water","class":"lake"}},{"type":"Feature","geometry":{"type":"Polygon","coordinates":[[[123.711634,10.513879],[123.712723,10.513779],[123.712669,10.513246],[123.71158,10.513341],[123.711634,10.513879]]]},"properties":{"kind":"water","class":"lake"}},{"type":"Feature","geometry":{"type":"Polygon","coordinates":[[[123.71158,10.513293],[123.712669,10.513204],[123.712615,10.512676],[123.711532,10.512787],[123.71158,10.513293]]]},"properties":{"kind":"water","class":"lake"}},{"type":"Feature","geometry":{"type":"Polygon","coordinates":[[[123.711526,10.512718],[123.71261,10.512624],[123.712556,10.512096],[123.711478,10.512202],[123.711526,10.512718]]]},"properties":{"kind":"water","class":"lake"}},{"type":"Feature","geometry":{"type":"Polygon","coordinates":[[[123.711473,10.512138],[123.712551,10.512043],[123.712503,10.511511],[123.711424,10.5116],[123.711473,10.512138]]]},"properties":{"kind":"water","class":"lake"}},{"type":"Feature","geometry":{"type":"Polygon","coordinates":[[[123.711419,10.511548],[123.712497,10.511463],[123.712444,10.510941],[123.711371,10.511036],[123.711419,10.511548]]]},"properties":{"kind":"water","class":"lake"}},{"type":"Feature","geometry":{"type":"Polygon","coordinates":[[[123.71305,10.510688],[123.713576,10.51064],[123.71349,10.509828],[123.712991,10.50987],[123.71305,10.510688]]]},"properties":{"kind":"water","class":"lake"}},{"type":"Feature","geometry":{"type":"Polygon","coordinates":[[[123.713018,10.510688],[123.712953,10.509839],[123.712615,10.509754],[123.712471,10.510535],[123.712492,10.51073],[123.713018,10.510688]]]},"properties":{"kind":"water","class":"lake"}},{"type":"Feature","geometry":{"type":"Polygon","coordinates":[[[123.710196,10.511532],[123.710421,10.511548],[123.710727,10.511474],[123.711215,10.5113],[123.711188,10.511068],[123.710153,10.511184],[123.710196,10.511532]]]},"properties":{"kind":"water","class":"lake"}},{"type":"Feature","geometry":{"type":"Polygon","coordinates":[[[123.710673,10.512893],[123.710754,10.513304],[123.711242,10.51322],[123.711344,10.513024],[123.71136,10.512819],[123.710673,10.512893]]]},"properties":{"kind":"water","class":"lake"}},{"type":"Feature","geometry":{"type":"Polygon","coordinates":[[[123.719181,10.52689],[123.719246,10.52689],[123.719219,10.525804],[123.719155,10.525809],[123.719181,10.52689]]]},"properties":{"kind":"bridge","class":"bridge"}},{"type":"Feature","geometry":{"type":"LineString","coordinates":[[123.711746,10.509079],[123.71172,10.509116]]},"properties":{"kind":"bridge","class":"minor"}},{"type":"Feature","geometry":{"type":"LineString","coordinates":[[123.719214,10.52689],[123.719187,10.525804]]},"properties":{"kind":"bridge","class":"trunk"}},{"type":"Feature","geometry":{"type":"Polygon","coordinates":[[[123.705872,10.490497],[123.705711,10.490518],[123.705711,10.509754],[123.70599,10.509754],[123.706248,10.509327],[123.706554,10.509174],[123.706747,10.509258],[123.706838,10.509665],[123.706838,10.509164],[123.706629,10.508262],[123.707219,10.507829],[123.70746,10.507143],[123.707787,10.507006],[123.708345,10.507033],[123.708748,10.506917],[123.709053,10.507254],[123.708758,10.507829],[123.708544,10.508082],[123.708469,10.508404],[123.708914,10.507787],[123.709322,10.507317],[123.70966,10.507317],[123.709681,10.508372],[123.709611,10.508821],[123.709815,10.50871],[123.709869,10.508979],[123.710008,10.508747],[123.709885,10.508388],[123.709847,10.507892],[123.710083,10.507861],[123.710405,10.50852],[123.710395,10.508784],[123.71025,10.509016],[123.710255,10.509179],[123.710641,10.508884],[123.710845,10.50881],[123.710963,10.508789],[123.711097,10.508821],[123.711258,10.508805],[123.711178,10.508742],[123.711172,10.50872],[123.711693,10.509074],[123.711768,10.508979],[123.711419,10.50871],[123.711205,10.508451],[123.711301,10.508135],[123.711473,10.507866],[123.711591,10.507935],[123.711773,10.507745],[123.711693,10.507676],[123.711403,10.507275],[123.711462,10.506885],[123.711714,10.506832],[123.711897,10.506669],[123.711929,10.506595],[123.712127,10.506674],[123.71231,10.506284],[123.712631,10.506384],[123.712648,10.506368],[123.711532,10.505962],[123.711478,10.505888],[123.71187,10.503646],[123.711746,10.503631],[123.711768,10.503446],[123.711897,10.503446],[123.711939,10.50294],[123.711972,10.502929],[123.712133,10.50294],[123.712932,10.503103],[123.713908,10.503383],[123.713431,10.503045],[123.713211,10.502992],[123.712776,10.50305],[123.712438,10.502834],[123.712401,10.502618],[123.712197,10.50247],[123.712197,10.502417],[123.712245,10.502375],[123.712594,10.502375],[123.713747,10.502549],[123.71379,10.502275],[123.71386,10.50228],[123.713806,10.502101],[123.713812,10.502064],[123.713849,10.502038],[123.713973,10.502048],[123.713999,10.502032],[123.714037,10.501959],[123.71408,10.5017],[123.714257,10.501711],[123.714337,10.500919],[123.714353,10.500914],[123.714627,10.500898],[123.714654,10.500872],[123.714665,10.500793],[123.714788,10.500793],[123.714831,10.500571],[123.714697,10.500566],[123.714702,10.500492],[123.714729,10.500492],[123.714734,10.500366],[123.714702,10.500313],[123.71474,10.50026],[123.714954,10.500255],[123.714965,10.500123],[123.714686,10.500118],[123.714686,10.499933],[123.714847,10.499938],[123.714836,10.499617],[123.714697,10.499458],[123.714434,10.499564],[123.714015,10.499596],[123.713914,10.499469],[123.713855,10.498061],[123.714241,10.498045],[123.714488,10.497945],[123.71452,10.497713],[123.714713,10.497486],[123.714643,10.497269],[123.714761,10.496985],[123.714756,10.496927],[123.714718,10.496874],[123.714643,10.496863],[123.714498,10.496906],[123.714396,10.497032],[123.714155,10.497591],[123.712685,10.497164],[123.712406,10.497454],[123.7121,10.497227],[123.712047,10.496974],[123.711601,10.496979],[123.711339,10.496753],[123.71173,10.496315],[123.711521,10.496146],[123.711398,10.496267],[123.71018,10.495233],[123.709981,10.495429],[123.709901,10.495349],[123.709901,10.495276],[123.70974,10.495086],[123.709204,10.494521],[123.709027,10.494701],[123.709032,10.494775],[123.709086,10.494817],[123.709021,10.494928],[123.708951,10.494875],[123.709005,10.49478],[123.709,10.494701],[123.709182,10.494506],[123.70827,10.493741],[123.707927,10.493646],[123.707331,10.492944],[123.707047,10.493039],[123.707144,10.492638],[123.707074,10.492185],[123.706607,10.491404],[123.706586,10.491262],[123.706629,10.49114],[123.706516,10.491182],[123.706339,10.490824],[123.706039,10.490539],[123.705872,10.490497]]]},"properties":{"kind":"water","class":"ocean"}},{"type":"Feature","geometry":{"type":"Polygon","coordinates":[[[123.715662,10.496093],[123.716885,10.495808],[123.716698,10.495397],[123.716387,10.495365],[123.716269,10.494891],[123.716188,10.494864],[123.716113,10.494959],[123.716038,10.495112],[123.716086,10.495276],[123.716054,10.495386],[123.715614,10.495286],[123.715571,10.495466],[123.715555,10.495856],[123.715662,10.496093]]]},"properties":{"kind":"water","class":"pond"}},{"type":"Feature","geometry":{"type":"Polygon","coordinates":[[[123.715684,10.49612],[123.716102,10.496916],[123.716944,10.497101],[123.717164,10.496726],[123.717009,10.496062],[123.716907,10.495861],[123.715684,10.49612]]]},"properties":{"kind":"water","class":"pond"}},{"type":"Feature","geometry":{"type":"Polygon","coordinates":[[[123.715469,10.495988],[123.715389,10.496067],[123.715174,10.495967],[123.715174,10.496547],[123.715587,10.4968],[123.715931,10.496874],[123.715469,10.495988]]]},"properties":{"kind":"water","class":"pond"}},{"type":"Feature","geometry":{"type":"Polygon","coordinates":[[[123.715383,10.495845],[123.715469,10.495803],[123.715464,10.49526],[123.715394,10.494395],[123.714788,10.494347],[123.71467,10.494068],[123.714359,10.494263],[123.714911,10.494801],[123.714944,10.494991],[123.715335,10.495687],[123.715383,10.495845]]]},"properties":{"kind":"water","class":"pond"}},{"type":"Feature","geometry":{"type":"Polygon","coordinates":[[[123.716435,10.497022],[123.716435,10.497364],[123.716387,10.497544],[123.716172,10.497818],[123.716108,10.497913],[123.716118,10.497976],[123.716199,10.497987],[123.716655,10.497892],[123.716757,10.497818],[123.71681,10.497523],[123.716923,10.497143],[123.716435,10.497022]]]},"properties":{"kind":"water","class":"lake"}},{"type":"Feature","geometry":{"type":"Polygon","coordinates":[[[123.718581,10.497037],[123.717991,10.497581],[123.718168,10.497976],[123.718731,10.497823],[123.718581,10.497037]]]},"properties":{"kind":"water","class":"lake"}},{"type":"Feature","geometry":{"type":"Polygon","coordinates":[[[123.721021,10.492554],[123.721032,10.492654],[123.72115,10.492865],[123.721139,10.49306],[123.721038,10.493197],[123.720968,10.493203],[123.72093,10.493124],[123.720893,10.493139],[123.720871,10.493377],[123.720726,10.493482],[123.7207,10.493598],[123.720877,10.493672],[123.721038,10.493688],[123.721445,10.493582],[123.721333,10.493482],[123.721139,10.493482],[123.72107,10.493356],[123.721091,10.49324],[123.721236,10.493081],[123.721386,10.492807],[123.721343,10.492549],[123.721204,10.492501],[123.721021,10.492554]]]},"properties":{"kind":"water","class":"lake"}},{"type":"Feature","geometry":{"type":"Polygon","coordinates":[[[123.714911,10.497011],[123.714997,10.496985],[123.714922,10.496795],[123.714842,10.496826],[123.714911,10.497011]]]},"properties":{"kind":"bridge","class":"bridge"}},{"type":"Feature","geometry":{"type":"Polygon","coordinates":[[[123.711956,10.502919],[123.711993,10.502924],[123.712009,10.502845],[123.711972,10.502839],[123.711956,10.502919]]]},"properties":{"kind":"bridge","class":"bridge"}},{"type":"Feature","geometry":{"type":"MultiLineString","coordinates":[[[123.711977,10.502924],[123.711988,10.502845]],[[123.714595,10.496484],[123.714445,10.496573]]]},"properties":{"kind":"bridge","class":"service"}},{"type":"Feature","geometry":{"type":"MultiLineString","coordinates":[[[123.711811,10.508984],[123.71172,10.509116]],[[123.714686,10.496826],[123.714579,10.496869]],[[123.717175,10.50382],[123.717159,10.503879]]]},"properties":{"kind":"bridge","class":"minor"}},{"type":"Feature","geometry":{"type":"MultiLineString","coordinates":[[[123.716725,10.501384],[123.716977,10.501331]],[[123.718516,10.50218],[123.71857,10.502096]],[[123.71754,10.502249],[123.717529,10.502328]]]},"properties":{"kind":"bridge","class":"minor"}},{"type":"Feature","geometry":{"type":"LineString","coordinates":[[123.717046,10.502866],[123.717143,10.502876]]},"properties":{"kind":"bridge","class":"primary"}},{"type":"Feature","geometry":{"type":"LineString","coordinates":[[123.714885,10.496811],[123.714954,10.497]]},"properties":{"kind":"bridge","class":"trunk"}}]}